[{"OBJECT_NAME":"ONEWEB-0663","OBJECT_ID":"2023-029AD","EPOCH":"2026-03-09T15:00:01.962144","MEAN_MOTION":13.20862617,"ECCENTRICITY":0.0001737,"INCLINATION":87.9176,"RA_OF_ASC_NODE":294.3814,"ARG_OF_PERICENTER":101.6549,"MEAN_ANOMALY":258.4779,"EPHEMERIS_TYPE":0,"CLASSIFICATION_TYPE":"U","NORAD_CAT_ID":55823,"ELEMENT_SET_NO":999,"REV_AT_EPOCH":14800,"BSTAR":-4.3852e-6,"MEAN_MOTION_DOT":1.1e-7,"MEAN_MOTION_DDOT":0},{"OBJECT_NAME":"DELTA 1 DEB","OBJECT_ID":"1973-086EJ","EPOCH":"2026-03-09T17:00:37.856736","MEAN_MOTION":13.06963556,"ECCENTRICITY":0.00866905,"INCLINATION":101.6482,"RA_OF_ASC_NODE":113.4494,"ARG_OF_PERICENTER":353.8115,"MEAN_ANOMALY":125.442,"EPHEMERIS_TYPE":0,"CLASSIFICATION_TYPE":"U","NORAD_CAT_ID":7170,"ELEMENT_SET_NO":999,"REV_AT_EPOCH":45116,"BSTAR":0.0029776114,"MEAN_MOTION_DOT":9.57e-6,"MEAN_MOTION_DDOT":0}]
